[
  {
    "OBJECT_NAME": "MOZHAYETS 4 (RS-22)",
    "OBJECT_ID": "2003-042A",
    "EPOCH": "2025-05-17T20:21:46.624320",
    "MEAN_MOTION": 14.72298218,
    "ECCENTRICITY": 0.0012735,
    "INCLINATION": 98.3267,
    "RA_OF_ASC_NODE": 306.7543,
    "ARG_OF_PERICENTER": 83.4466,
    "MEAN_ANOMALY": 45.3193,
    "EPHEMERIS_TYPE": 0,
    "CLASSIFICATION_TYPE": "U",
    "NORAD_CAT_ID": 27939,
    "ELEMENT_SET_NO": 999,
    "REV_AT_EPOCH": 15748,
    "BSTAR": 0.00025619,
    "MEAN_MOTION_DOT": 1.568e-05,
    "MEAN_MOTION_DDOT": 0
  },
  {
    "OBJECT_NAME": "CUBESAT XI-V",
    "OBJECT_ID": "2005-043F",
    "EPOCH": "2025-05-17T07:44:22.214112",
    "MEAN_MOTION": 14.70940469,
    "ECCENTRICITY": 0.0014897,
    "INCLINATION": 98.2468,
    "RA_OF_ASC_NODE": 281.3875,
    "ARG_OF_PERICENTER": 25.8258,
    "MEAN_ANOMALY": 334.3688,
    "EPHEMERIS_TYPE": 0,
    "CLASSIFICATION_TYPE": "U",
    "NORAD_CAT_ID": 28895,
    "ELEMENT_SET_NO": 999,
    "REV_AT_EPOCH": 4352,
    "BSTAR": 0.00034328,
    "MEAN_MOTION_DOT": 2.055e-05,
    "MEAN_MOTION_DDOT": 0
  },
  {
    "OBJECT_NAME": "CUTE-1.7+APD II (CO-65)",
    "OBJECT_ID": "2008-021C",
    "EPOCH": "2025-05-17T14:10:08.177088",
    "MEAN_MOTION": 15.04209713,
    "ECCENTRICITY": 0.0008151,
    "INCLINATION": 97.7851,
    "RA_OF_ASC_NODE": 108.5895,
    "ARG_OF_PERICENTER": 295.1405,
    "MEAN_ANOMALY": 64.8975,
    "EPHEMERIS_TYPE": 0,
    "CLASSIFICATION_TYPE": "U",
    "NORAD_CAT_ID": 32785,
    "ELEMENT_SET_NO": 999,
    "REV_AT_EPOCH": 92562,
    "BSTAR": 0.00051982,
    "MEAN_MOTION_DOT": 7.167e-05,
    "MEAN_MOTION_DDOT": 0
  },
  {
    "OBJECT_NAME": "SEEDS II (CO-66)",
    "OBJECT_ID": "2008-021J",
    "EPOCH": "2025-05-17T13:45:19.302912",
    "MEAN_MOTION": 15.18161257,
    "ECCENTRICITY": 0.0001916,
    "INCLINATION": 97.7274,
    "RA_OF_ASC_NODE": 117.1135,
    "ARG_OF_PERICENTER": 219.7064,
    "MEAN_ANOMALY": 140.4029,
    "EPHEMERIS_TYPE": 0,
    "CLASSIFICATION_TYPE": "U",
    "NORAD_CAT_ID": 32791,
    "ELEMENT_SET_NO": 999,
    "REV_AT_EPOCH": 92700,
    "BSTAR": 0.00079223,
    "MEAN_MOTION_DOT": 0.00016135,
    "MEAN_MOTION_DDOT": 0
  },
  {
    "OBJECT_NAME": "YUBILEINY (RS-30)",
    "OBJECT_ID": "2008-025A",
    "EPOCH": "2025-05-17T18:53:51.110304",
    "MEAN_MOTION": 12.43164278,
    "ECCENTRICITY": 0.0020556,
    "INCLINATION": 82.5036,
    "RA_OF_ASC_NODE": 241.349,
    "ARG_OF_PERICENTER": 96.5959,
    "MEAN_ANOMALY": 263.7461,
    "EPHEMERIS_TYPE": 0,
    "CLASSIFICATION_TYPE": "U",
    "NORAD_CAT_ID": 32953,
    "ELEMENT_SET_NO": 999,
    "REV_AT_EPOCH": 77070,
    "BSTAR": 0.00031649,
    "MEAN_MOTION_DOT": 5.4e-07,
    "MEAN_MOTION_DDOT": 0
  },
  {
    "OBJECT_NAME": "KKS-1 (KISEKI)",
    "OBJECT_ID": "2009-002H",
    "EPOCH": "2025-05-17T13:28:07.237632",
    "MEAN_MOTION": 14.81552654,
    "ECCENTRICITY": 0.000926,
    "INCLINATION": 98.1215,
    "RA_OF_ASC_NODE": 49.3142,
    "ARG_OF_PERICENTER": 124.9872,
    "MEAN_ANOMALY": 235.2211,
    "EPHEMERIS_TYPE": 0,
    "CLASSIFICATION_TYPE": "U",
    "NORAD_CAT_ID": 33499,
    "ELEMENT_SET_NO": 999,
    "REV_AT_EPOCH": 87758,
    "BSTAR": 0.00024691,
    "MEAN_MOTION_DOT": 1.884e-05,
    "MEAN_MOTION_DDOT": 0
  },
  {
    "OBJECT_NAME": "SWISSCUBE",
    "OBJECT_ID": "2009-051B",
    "EPOCH": "2025-05-17T06:45:22.508064",
    "MEAN_MOTION": 14.61281268,
    "ECCENTRICITY": 0.0007345,
    "INCLINATION": 98.4327,
    "RA_OF_ASC_NODE": 33.0782,
    "ARG_OF_PERICENTER": 15.0512,
    "MEAN_ANOMALY": 345.0905,
    "EPHEMERIS_TYPE": 0,
    "CLASSIFICATION_TYPE": "U",
    "NORAD_CAT_ID": 35932,
    "ELEMENT_SET_NO": 999,
    "REV_AT_EPOCH": 83131,
    "BSTAR": 0.00031727,
    "MEAN_MOTION_DOT": 1.517e-05,
    "MEAN_MOTION_DDOT": 0
  },
  {
    "OBJECT_NAME": "BEESAT-1",
    "OBJECT_ID": "2009-051C",
    "EPOCH": "2025-05-17T05:55:06.931200",
    "MEAN_MOTION": 14.60703748,
    "ECCENTRICITY": 0.0006088,
    "INCLINATION": 98.4257,
    "RA_OF_ASC_NODE": 33.4381,
    "ARG_OF_PERICENTER": 29.7356,
    "MEAN_ANOMALY": 330.4188,
    "EPHEMERIS_TYPE": 0,
    "CLASSIFICATION_TYPE": "U",
    "NORAD_CAT_ID": 35933,
    "ELEMENT_SET_NO": 999,
    "REV_AT_EPOCH": 83136,
    "BSTAR": 0.00027274,
    "MEAN_MOTION_DOT": 1.28e-05,
    "MEAN_MOTION_DDOT": 0
  },
  {
    "OBJECT_NAME": "ITUPSAT1",
    "OBJECT_ID": "2009-051E",
    "EPOCH": "2025-05-17T10:48:00.652320",
    "MEAN_MOTION": 14.59505058,
    "ECCENTRICITY": 0.0008418,
    "INCLINATION": 98.4352,
    "RA_OF_ASC_NODE": 33.2049,
    "ARG_OF_PERICENTER": 33.6531,
    "MEAN_ANOMALY": 326.5201,
    "EPHEMERIS_TYPE": 0,
    "CLASSIFICATION_TYPE": "U",
    "NORAD_CAT_ID": 35935,
    "ELEMENT_SET_NO": 999,
    "REV_AT_EPOCH": 83099,
    "BSTAR": 0.00026168,
    "MEAN_MOTION_DOT": 1.194e-05,
    "MEAN_MOTION_DDOT": 0
  },
  {
    "OBJECT_NAME": "XIWANG-1 (HOPE-1)",
    "OBJECT_ID": "2009-072B",
    "EPOCH": "2025-05-17T19:38:14.198496",
    "MEAN_MOTION": 13.16424363,
    "ECCENTRICITY": 0.0008115,
    "INCLINATION": 100.3475,
    "RA_OF_ASC_NODE": 94.0762,
    "ARG_OF_PERICENTER": 59.7419,
    "MEAN_ANOMALY": 300.4496,
    "EPHEMERIS_TYPE": 0,
    "CLASSIFICATION_TYPE": "U",
    "NORAD_CAT_ID": 36122,
    "ELEMENT_SET_NO": 999,
    "REV_AT_EPOCH": 74108,
    "BSTAR": 0.00012882,
    "MEAN_MOTION_DOT": 5e-08,
    "MEAN_MOTION_DDOT": 0
  },
  {
    "OBJECT_NAME": "O/OREOS (USA 219)",
    "OBJECT_ID": "2010-062C",
    "EPOCH": "2025-05-17T10:10:56.976384",
    "MEAN_MOTION": 14.91354686,
    "ECCENTRICITY": 0.0013051,
    "INCLINATION": 71.9717,
    "RA_OF_ASC_NODE": 255.1248,
    "ARG_OF_PERICENTER": 102.7375,
    "MEAN_ANOMALY": 257.5254,
    "EPHEMERIS_TYPE": 0,
    "CLASSIFICATION_TYPE": "U",
    "NORAD_CAT_ID": 37224,
    "ELEMENT_SET_NO": 999,
    "REV_AT_EPOCH": 5759,
    "BSTAR": 0.00034524,
    "MEAN_MOTION_DOT": 3.391e-05,
    "MEAN_MOTION_DDOT": 0
  },
  {
    "OBJECT_NAME": "JUGNU",
    "OBJECT_ID": "2011-058B",
    "EPOCH": "2025-05-17T19:59:30.914880",
    "MEAN_MOTION": 14.13595968,
    "ECCENTRICITY": 0.0018778,
    "INCLINATION": 19.9591,
    "RA_OF_ASC_NODE": 190.001,
    "ARG_OF_PERICENTER": 31.0887,
    "MEAN_ANOMALY": 124.2955,
    "EPHEMERIS_TYPE": 0,
    "CLASSIFICATION_TYPE": "U",
    "NORAD_CAT_ID": 37839,
    "ELEMENT_SET_NO": 999,
    "REV_AT_EPOCH": 70312,
    "BSTAR": 0.00010677,
    "MEAN_MOTION_DOT": 4.71e-06,
    "MEAN_MOTION_DDOT": 0
  },
  {
    "OBJECT_NAME": "SRMSAT",
    "OBJECT_ID": "2011-058D",
    "EPOCH": "2025-05-17T20:15:08.345376",
    "MEAN_MOTION": 14.11429095,
    "ECCENTRICITY": 0.0011712,
    "INCLINATION": 19.9727,
    "RA_OF_ASC_NODE": 292.1368,
    "ARG_OF_PERICENTER": 174.5686,
    "MEAN_ANOMALY": 306.3864,
    "EPHEMERIS_TYPE": 0,
    "CLASSIFICATION_TYPE": "U",
    "NORAD_CAT_ID": 37841,
    "ELEMENT_SET_NO": 999,
    "REV_AT_EPOCH": 70211,
    "BSTAR": 0.00011168,
    "MEAN_MOTION_DOT": 4.7e-06,
    "MEAN_MOTION_DDOT": 0
  },
  {
    "OBJECT_NAME": "STRAND-1",
    "OBJECT_ID": "2013-009E",
    "EPOCH": "2025-05-17T11:39:16.154496",
    "MEAN_MOTION": 14.36801405,
    "ECCENTRICITY": 0.0008225,
    "INCLINATION": 98.3828,
    "RA_OF_ASC_NODE": 322.7887,
    "ARG_OF_PERICENTER": 341.8752,
    "MEAN_ANOMALY": 18.214,
    "EPHEMERIS_TYPE": 0,
    "CLASSIFICATION_TYPE": "U",
    "NORAD_CAT_ID": 39090,
    "ELEMENT_SET_NO": 999,
    "REV_AT_EPOCH": 64023,
    "BSTAR": 0.00015412,
    "MEAN_MOTION_DOT": 4.12e-06,
    "MEAN_MOTION_DDOT": 0
  }
]