MOZHAYETS 4 (RS-22)     
1 27939U 03042A   25137.84845630  .00001568  00000+0  25619-3 0  9990
2 27939  98.3267 306.7543 0012735  83.4466  45.3193 14.72298218157488
CUBESAT XI-V            
1 28895U 05043F   25137.32247933  .00002055  00000+0  34328-3 0  9999
2 28895  98.2468 281.3875 0014897  25.8258 334.3688 14.70940469 43527
CUTE-1.7+APD II (CO-65) 
1 32785U 08021C   25137.59037242  .00007167  00000+0  51982-3 0  9994
2 32785  97.7851 108.5895 0008151 295.1405  64.8975 15.04209713925626
SEEDS II (CO-66)        
1 32791U 08021J   25137.57314008  .00016135  00000+0  79223-3 0  9990
2 32791  97.7274 117.1135 0001916 219.7064 140.4029 15.18161257927000
YUBILEINY (RS-30)       
1 32953U 08025A   25137.78739711  .00000054  00000+0  31649-3 0  9992
2 32953  82.5036 241.3490 0020556  96.5959 263.7461 12.43164278770700
KKS-1 (KISEKI)          
1 33499U 09002H   25137.56119488  .00001884  00000+0  24691-3 0  9994
2 33499  98.1215  49.3142 0009260 124.9872 235.2211 14.81552654877581
SWISSCUBE               
1 35932U 09051B   25137.28151051  .00001517  00000+0  31727-3 0  9994
2 35932  98.4327  33.0782 0007345  15.0512 345.0905 14.61281268831314
BEESAT-1                
1 35933U 09051C   25137.24660800  .00001280  00000+0  27274-3 0  9997
2 35933  98.4257  33.4381 0006088  29.7356 330.4188 14.60703748831364
ITUPSAT1                
1 35935U 09051E   25137.45000755  .00001194  00000+0  26168-3 0  9994
2 35935  98.4352  33.2049 0008418  33.6531 326.5201 14.59505058830991
XIWANG-1 (HOPE-1)       
1 36122U 09072B   25137.81821989  .00000005  00000+0  12882-3 0  9994
2 36122 100.3475  94.0762 0008115  59.7419 300.4496 13.16424363741083
O/OREOS (USA 219)       
1 37224U 10062C   25137.42427056  .00003391  00000+0  34524-3 0  9991
2 37224  71.9717 255.1248 0013051 102.7375 257.5254 14.91354686 57597
JUGNU                   
1 37839U 11058B   25137.83299670  .00000471  00000+0  10677-3 0  9992
2 37839  19.9591 190.0010 0018778  31.0887 124.2955 14.13595968703127
SRMSAT                  
1 37841U 11058D   25137.84384659  .00000470  00000+0  11168-3 0  9993
2 37841  19.9727 292.1368 0011712 174.5686 306.3864 14.11429095702117
STRAND-1                
1 39090U 13009E   25137.48560364  .00000412  00000+0  15412-3 0  9990
2 39090  98.3828 322.7887 0008225 341.8752  18.2140 14.36801405640238
